HAWK-C                  
1 43799U 18099AT  26068.67261865  .00009431  00000+0  35663-3 0  9994
2 43799  97.4027 122.6817 0040363 277.4052  82.2601 15.26407167398720
STARLINK-31791          
1 59637U 24082G   26068.22546170  .00002987  00000+0  11812-3 0  9996
2 59637  42.9988 142.1953 0000366 200.7339 159.3497 15.27551311104741
